STARLINK-36369          
1 67723U 26026C   26068.91668981 -.01972119  00000+0 -41406-1 0  9998
2 67723  97.2847 123.4317 0001885  70.9847 342.6499 15.48557021  5350
KUIPER-00218            
1 67780U 26030S   26068.64042744  .00022104  00000+0  64584-3 0  9990
2 67780  51.8829 219.4934 0006939  50.9637 309.1966 15.35202151  5084
